H1 CPF  1  DGF 2022 04 29 11  6191 larets     NONE      
H2   304206 5557    27944 2022 04 29 00 00 00 2022 05 06 00 00 00    30 1 1  0 0 0
H5  0.0650
H9
10 0 59702  64800.000000  0       3764407.370      -5847198.740       1244785.780
10 0 59702  64830.000000  0       3743698.974      -5903597.537       1024783.698
10 0 59702  64860.000000  0       3718962.894      -5953913.707        803735.251
10 0 59702  64890.000000  0       3690251.622      -5998079.833        581866.266
10 0 59702  64920.000000  0       3657621.991      -6036035.044        359403.337
10 0 59702  64950.000000  0       3621135.079      -6067725.097        136573.588
10 0 59702  64980.000000  0       3580856.119      -6093102.440        -86395.573
10 0 59702  65010.000000  0       3536854.397      -6112126.280       -309276.694
10 0 59702  65040.000000  0       3489203.144      -6124762.631       -531842.517
10 0 59702  65070.000000  0       3437979.427      -6130984.361       -753866.214
10 0 59702  65100.000000  0       3383264.037      -6130771.223       -975121.621
10 0 59702  65130.000000  0       3325141.368      -6124109.892      -1195383.475
10 0 59702  65160.000000  0       3263699.305      -6110993.982      -1414427.638
10 0 59702  65190.000000  0       3199029.092      -6091424.068      -1632031.339
10 0 59702  65220.000000  0       3131225.214      -6065407.686      -1847973.394
10 0 59702  65250.000000  0       3060385.259      -6032959.338      -2062034.446
10 0 59702  65280.000000  0       2986609.783      -5994100.479      -2273997.183
10 0 59702  65310.000000  0       2910002.175      -5948859.495      -2483646.563
10 0 59702  65340.000000  0       2830668.517      -5897271.680      -2690770.032
10 0 59702  65370.000000  0       2748717.443      -5839379.202      -2895157.744
10 0 59702  65400.000000  0       2664259.989      -5775231.059      -3096602.771
10 0 59702  65430.000000  0       2577409.448      -5704883.033      -3294901.311
10 0 59702  65460.000000  0       2488281.219      -5628397.627      -3489852.891
10 0 59702  65490.000000  0       2396992.656      -5545844.004      -3681260.566
10 0 59702  65520.000000  0       2303662.918      -5457297.911      -3868931.115
10 0 59702  65550.000000  0       2208412.810      -5362841.601      -4052675.224
10 0 59702  65580.000000  0       2111364.638      -5262563.749      -4232307.675
10 0 59702  65610.000000  0       2012642.050      -5156559.358      -4407647.526
10 0 59702  65640.000000  0       1912369.884      -5044929.660      -4578518.282
10 0 59702  65670.000000  0       1810674.013      -4927782.011      -4744748.068
10 0 59702  65700.000000  0       1707681.194      -4805229.781      -4906169.789
10 0 59702  65730.000000  0       1603518.908      -4677392.238      -5062621.295
10 0 59702  65760.000000  0       1498315.210      -4544394.421      -5213945.531
10 0 59702  65790.000000  0       1392198.575      -4406367.016      -5359990.687
10 0 59702  65820.000000  0       1285297.742      -4263446.215      -5500610.340
10 0 59702  65850.000000  0       1177741.565      -4115773.582      -5635663.588
10 0 59702  65880.000000  0       1069658.858      -3963495.903      -5765015.184
10 0 59702  65910.000000  0        961178.247      -3806765.038      -5888535.659
10 0 59702  65940.000000  0        852428.019      -3645737.768      -6006101.442
10 0 59702  65970.000000  0        743535.974      -3480575.632      -6117594.967
10 0 59702  66000.000000  0        634629.281      -3311444.764      -6222904.790
10 0 59702  66030.000000  0        525834.335      -3138515.725      -6321925.682
10 0 59702  66060.000000  0        417276.610      -2961963.331      -6414558.728
10 0 59702  66090.000000  0        309080.523      -2781966.474      -6500711.414
10 0 59702  66120.000000  0        201369.294      -2598707.942      -6580297.712
10 0 59702  66150.000000  0         94264.815      -2412374.236      -6653238.156
10 0 59702  66180.000000  0        -12112.490      -2223155.379      -6719459.911
10 0 59702  66210.000000  0       -117643.792      -2031244.731      -6778896.840
10 0 59702  66240.000000  0       -222211.982      -1836838.792      -6831489.562
10 0 59702  66270.000000  0       -325701.799      -1640137.004      -6877185.507
10 0 59702  66300.000000  0       -427999.951      -1441341.550      -6915938.962
10 0 59702  66330.000000  0       -528995.236      -1240657.157      -6947711.112
10 0 59702  66360.000000  0       -628578.656      -1038290.881      -6972470.075
10 0 59702  66390.000000  0       -726643.533       -834451.908      -6990190.930
10 0 59702  66420.000000  0       -823085.620       -629351.338      -7000855.741
10 0 59702  66450.000000  0       -917803.206       -423201.977      -7004453.567
10 0 59702  66480.000000  0      -1010697.226       -216218.121      -7000980.478
10 0 59702  66510.000000  0      -1101671.354         -8615.346      -6990439.553
10 0 59702  66540.000000  0      -1190632.108        199389.710      -6972840.888
10 0 59702  66570.000000  0      -1277488.938        407579.566      -6948201.581
10 0 59702  66600.000000  0      -1362154.318        615736.120      -6916545.726
10 0 59702  66630.000000  0      -1444543.835        823640.871      -6877904.392
10 0 59702  66660.000000  0      -1524576.266       1031075.142      -6832315.594
10 0 59702  66690.000000  0      -1602173.658       1237820.304      -6779824.257
10 0 59702  66720.000000  0      -1677261.405       1443657.992      -6720482.185
10 0 59702  66750.000000  0      -1749768.314       1648370.334      -6654348.017
10 0 59702  66780.000000  0      -1819626.680       1851740.172      -6581487.179
10 0 59702  66810.000000  0      -1886772.344       2053551.290      -6501971.834
10 0 59702  66840.000000  0      -1951144.759       2253588.645      -6415880.819
10 0 59702  66870.000000  0      -2012687.041       2451638.590      -6323299.575
10 0 59702  66900.000000  0      -2071346.024       2647489.103      -6224320.071
10 0 59702  66930.000000  0      -2127072.302       2840930.008      -6119040.721
10 0 59702  66960.000000  0      -2179820.273       3031753.199      -6007566.301
10 0 59702  66990.000000  0      -2229548.176       3219752.862      -5890007.860
10 0 59702  67020.000000  0      -2276218.129       3404725.702      -5766482.617
10 0 59702  67050.000000  0      -2319796.156       3586471.161      -5637113.860
10 0 59702  67080.000000  0      -2360252.212       3764791.639      -5502030.835
10 0 59702  67110.000000  0      -2397560.209       3939492.715      -5361368.624
10 0 59702  67140.000000  0      -2431698.028       4110383.362      -5215268.025
10 0 59702  67170.000000  0      -2462647.532       4277276.159      -5063875.417
10 0 59702  67200.000000  0      -2490394.573       4439987.503      -4907342.628
10 0 59702  67230.000000  0      -2514928.995       4598337.817      -4745826.785
10 0 59702  67260.000000  0      -2536244.627       4752151.756      -4579490.172
10 0 59702  67290.000000  0      -2554339.282       4901258.405      -4408500.072
10 0 59702  67320.000000  0      -2569214.738       5045491.474      -4233028.604
10 0 59702  67350.000000  0      -2580876.725       5184689.494      -4053252.560
10 0 59702  67380.000000  0      -2589334.901       5318695.999      -3869353.236
10 0 59702  67410.000000  0      -2594602.823       5447359.714      -3681516.259
10 0 59702  67440.000000  0      -2596697.922       5570534.736      -3489931.405
10 0 59702  67470.000000  0      -2595641.460       5688080.711      -3294792.417
10 0 59702  67500.000000  0      -2591458.495       5799863.004      -3096296.809
10 0 59702  67530.000000  0      -2584177.833       5905752.866      -2894645.676
10 0 59702  67560.000000  0      -2573831.980       6005627.592      -2690043.486
10 0 59702  67590.000000  0      -2560457.087       6099370.679      -2482697.876
10 0 59702  67620.000000  0      -2544092.892       6186871.967      -2272819.440
10 0 59702  67650.000000  0      -2524782.650       6268027.779      -2060621.509
10 0 59702  67680.000000  0      -2502573.071       6342741.050      -1846319.937
10 0 59702  67710.000000  0      -2477514.244       6410921.448      -1630132.883
10 0 59702  67740.000000  0      -2449659.563       6472485.498      -1412280.583
10 0 59702  67770.000000  0      -2419065.644       6527356.690      -1192985.130
10 0 59702  67800.000000  0      -2385792.244       6575465.580       -972470.240
10 0 59702  67830.000000  0      -2349902.170       6616749.890       -750961.026
10 0 59702  67860.000000  0      -2311461.188       6651154.599       -528683.763
10 0 59702  67890.000000  0      -2270537.925       6678632.032       -305865.648
10 0 59702  67920.000000  0      -2227203.776       6699141.925        -82734.555
10 0 59702  67950.000000  0      -2181532.794       6712651.493        140481.209
10 0 59702  67980.000000  0      -2133601.581       6719135.475        363553.152
10 0 59702  68010.000000  0      -2083489.182       6718576.181        586252.837
10 0 59702  68040.000000  0      -2031276.964       6710963.521        808352.130
10 0 59702  68070.000000  0      -1977048.504       6696295.025       1029623.444
10 0 59702  68100.000000  0      -1920889.466       6674575.864       1249839.977
10 0 59702  68130.000000  0      -1862887.479       6645818.846       1468775.954
10 0 59702  68160.000000  0      -1803132.015       6610044.423       1686206.869
10 0 59702  68190.000000  0      -1741714.259       6567280.670       1901909.721
10 0 59702  68220.000000  0      -1678726.985       6517563.269       2115663.252
10 0 59702  68250.000000  0      -1614264.423       6460935.476       2327248.179
10 0 59702  68280.000000  0      -1548422.129       6397448.082       2536447.430
10 0 59702  68310.000000  0      -1481296.856       6327159.366       2743046.369
10 0 59702  68340.000000  0      -1412986.417       6250135.038       2946833.023
10 0 59702  68370.000000  0      -1343589.555       6166448.177       3147598.311
99
